51622,ONEWEB-0410,2022,109.29,148.0,+,87.92,Active,1,LEO,French Guiana,UK,Commercial,Communications,Soyuz,1 51622U 22012A   23281.07141885  .00000017  00000+0  94576-5 0  9996,2 51622  87.9194 201.2539 0001732 114.7963 245.3349 13.17648266 85526,13.17648266,0.0001732,LEO
51623,ONEWEB-0411,2022,109.89,148.0,+,87.89,Active,1,LEO,French Guiana,UK,Commercial,Communications,Soyuz,1 51623U 22012B   23280.91037009 -.00000176  00000+0 -53998-3 0  9990,2 51623  87.8883 231.5060 0001728  71.4654 288.6661 13.10380071 80518,13.10380071,0.0001728,LEO
51624,ONEWEB-0415,2022,109.89,148.0,+,87.89,Active,1,LEO,French Guiana,UK,Commercial,Communications,Soyuz,1 51624U 22012C   23280.90711551 -.00000750  00000+0 -21852-2 0  9992,2 51624  87.8885 231.5337 0001650  71.0941 289.0365 13.10375694 81799,13.10375694,0.000165,LEO
51625,ONEWEB-0416,2022,109.89,148.0,+,87.89,Active,1,LEO,French Guiana,UK,Commercial,Communications,Soyuz,1 51625U 22012D   23280.91851201  .00000141  00000+0  36770-3 0  9999,2 51625  87.8887 231.5180 0002033  77.3044 282.8310 13.10379190 80556,13.1037919,0.0002033,LEO
51626,ONEWEB-0422,2022,109.29,148.0,+,87.92,Active,1,LEO,French Guiana,UK,Commercial,Communications,Soyuz,1 51626U 22012E   23280.85206437  .00000098  00000+0  22045-3 0  9999,2 51626  87.9190 201.2924 0002724  67.7923 292.3497 13.17651683 84318,13.17651683,0.0002724,LEO
51627,ONEWEB-0423,2022,109.29,148.0,+,87.93,Active,1,LEO,French Guiana,UK,Commercial,Communications,Soyuz,1 51627U 22012F   23280.84572357  .00000031  00000+0  47881-4 0  9999,2 51627  87.9255 201.2556 0001948  76.1798 283.9551 13.17647340 84203,13.1764734,0.0001948,LEO
51628,ONEWEB-0425,2022,109.89,148.0,+,87.89,Active,1,LEO,French Guiana,UK,Commercial,Communications,Soyuz,1 51628U 22012G   23280.92826913  .00000582  00000+0  16313-2 0  9994,2 51628  87.8879 231.5083 0002252  92.1621 267.9764 13.10378365 80551,13.10378365,0.0002252,LEO
51629,ONEWEB-0428,2022,109.89,148.0,+,87.89,Active,1,LEO,French Guiana,UK,Commercial,Communications,Soyuz,1 51629U 22012H   23280.90875161 -.00000243  00000+0 -73196-3 0  9991,2 51629  87.8884 231.5237 0002144  69.7005 290.4352 13.10378496 80510,13.10378496,0.0002144,LEO
